GPS BIIR-5  (PRN 22)    
1 26407U 00040A   26145.59801882 -.00000004  00000+0  00000+0 0  9995
2 26407  54.8547 216.0596 0121329 302.3746 231.3385  2.00557527189495
GPS BIIR-8  (PRN 16)    
1 27663U 03005A   26145.26291218 -.00000007  00000+0  00000+0 0  9997
2 27663  54.8858 215.8797 0147949  53.0214  14.4311  2.00561815170855
GPS BIIR-11 (PRN 19)    
1 28190U 04009A   26144.95289662 -.00000078  00000+0  00000+0 0  9991
2 28190  54.8497 276.6255 0115098 172.0582 185.2227  2.00555464162479
GPS BIIR-13 (PRN 02)    
1 28474U 04045A   26145.36143050 -.00000086  00000+0  00000+0 0  9991
2 28474  55.1498 325.8150 0169831 315.8284  41.4155  2.00554891157964
GPS BIIRM-1 (PRN 17)    
1 28874U 05038A   26145.41016624 -.00000080  00000+0  00000+0 0  9994
2 28874  54.8973 274.0963 0127735 296.0095  59.1466  2.00567255151374
GPS BIIRM-2 (PRN 31)    
1 29486U 06042A   26145.13829325  .00000091  00000+0  00000+0 0  9990
2 29486  54.7074 152.2538 0106241  53.9126   3.0347  2.00571164143937
GPS BIIRM-3 (PRN 12)    
1 29601U 06052A   26144.48591470 -.00000012  00000+0  00000+0 0  9998
2 29601  54.9372 214.9460 0085625  90.6191 270.4207  2.00556865142936
GPS BIIRM-4 (PRN 15)    
1 32260U 07047A   26144.79071294 -.00000031  00000+0  00000+0 0  9990
2 32260  54.0788  81.0295 0165818  86.9308 274.9410  2.00556397136346
GPS BIIRM-5 (PRN 29)    
1 32384U 07062A   26144.85454153 -.00000076  00000+0  00000+0 0  9999
2 32384  55.0511 275.0902 0035291 164.1144   9.0351  2.00558668135046
GPS BIIRM-6 (PRN 07)    
1 32711U 08012A   26145.20262984  .00000091  00000+0  00000+0 0  9994
2 32711  54.4938 150.8428 0210719 247.5440 110.2375  2.00571835133291
GPS BIIRM-8 (PRN 05)    
1 35752U 09043A   26145.34250110 -.00000108  00000+0  00000+0 0  9990
2 35752  56.1964  28.3489 0053522  82.2755  30.1700  2.00555521122905
GPS BIIF-1  (PRN 25)    
1 36585U 10022A   26143.78349725 -.00000007  00000+0  00000+0 0  9999
2 36585  54.2724 209.5453 0126358  66.1078 118.5533  2.00561193117107
GPS BIIF-3  (PRN 24)    
1 38833U 12053A   26144.38504975  .00000083  00000+0  00000+0 0  9993
2 38833  53.5811 144.5742 0179096  65.4338 296.4391  2.00567085 98967
GPS BIIF-4  (PRN 27)    
1 39166U 13023A   26144.74992255 -.00000075  00000+0  00000+0 0  9995
2 39166  54.5230 269.9280 0141730  50.9138 310.3242  2.00563616 95417
GPS BIIF-5  (PRN 30)    
1 39533U 14008A   26145.24987853  .00000089  00000+0  00000+0 0  9995
2 39533  53.6506 150.2551 0084166 230.8699 128.4053  2.00558342 89224
GPS BIIF-6  (PRN 06)    
1 39741U 14026A   26145.52529391 -.00000085  00000+0  00000+0 0  9993
2 39741  56.5091 332.3994 0038419 326.8930  32.8791  2.00562712 88080
GPS BIIF-7  (PRN 09)    
1 40105U 14045A   26145.11810405 -.00000012  00000+0  00000+0 0  9994
2 40105  55.3389  89.3836 0032425 118.5184 241.7812  2.00556877 85611
GPS BIIF-8  (PRN 03)    
1 40294U 14068A   26144.98987679 -.00000106  00000+0  00000+0 0  9994
2 40294  56.9722  31.8484 0066401  69.7589 290.9872  2.00574806 84743
GPS BIIF-9  (PRN 26)    
1 40534U 15013A   26144.62808292  .00000007  00000+0  00000+0 0  9995
2 40534  53.1699 205.1520 0109123  40.0333 320.8330  2.00552773 81352
GPS BIIF-10 (PRN 08)    
1 40730U 15033A   26145.28565388 -.00000078  00000+0  00000+0 0  9993
2 40730  54.0008 268.0305 0115020  30.1303 330.5127  2.00557419 79534
GPS BIIF-11 (PRN 10)    
1 41019U 15062A   26144.84405743 -.00000106  00000+0  00000+0 0  9997
2 41019  56.9441  31.7103 0111403 231.2784 127.7540  2.00567019 77367
GPS BIIF-12 (PRN 32)    
1 41328U 16007A   26144.93347675 -.00000007  00000+0  00000+0 0  9999
2 41328  55.5105  90.3811 0096099 247.3195 111.6364  2.00552846 75373
GPS BIII-1  (PRN 04)    
1 43873U 18109A   26145.31991323 -.00000004  00000+0  00000+0 0  9996
2 43873  55.6692  93.0882 0038028 198.4891 334.1413  2.00560673 54615
GPS BIII-2  (PRN 18)    
1 44506U 19056A   26145.46236689 -.00000087  00000+0  00000+0 0  9996
2 44506  55.6478 332.0448 0060844 197.3305 341.1961  2.00569601 49614
GPS BIII-3  (PRN 23)    
1 45854U 20041A   26142.05045964 -.00000093  00000+0  00000+0 0  9992
2 45854  56.6536  29.9571 0062927 204.8500 329.5146  2.00559133 43518
GPS BIII-4  (PRN 14)    
1 46826U 20078A   26145.27717564  .00000001  00000+0  00000+0 0  9999
2 46826  53.9825 211.7077 0072502 206.6669 113.0792  2.00564923 41049
GPS BIII-5  (PRN 11)    
1 48859U 21054A   26137.34480044 -.00000068  00000+0  00000+0 0  9995
2 48859  55.1878 333.6992 0024563 229.1356 308.8651  2.00570737 36138
GPS BIII-6  (PRN 28)    
1 55268U 23009A   26142.53471350  .00000069  00000+0  00000+0 0  9996
2 55268  55.1207 149.5238 0008482 318.2622  45.1799  2.00573116 24732
GPS BIII-7  (PRN 01)    
1 62339U 24242A   26143.66691069 -.00000087  00000+0  00000+0 0  9990
2 62339  54.8596 335.1744 0017373   3.8345 179.6490  2.00571082 10768
GPS BIII-8  (PRN 21)    
1 64202U 25116A   26145.40733330 -.00000109  00000+0  00000+0 0  9999
2 64202  55.2192  32.0466 0008614 335.9323 206.6816  2.00577585  7418
GPS BIII-9  (PRN 20)    
1 67588U 26017A   26144.76495305 -.00000008  00000+0  00000+0 0  9993
2 67588  55.0742  89.6948 0022702 256.4817 103.2392  2.00571625431140
GPS BIII-10 (PRN 13)    
1 68791U 26087A   26139.48610789  .00000028  00000+0  00000+0 0  9996
2 68791  54.9639 208.9229 0005154 271.7816  81.6763  2.00570690   255
